STARLINK-37601          
1 69450U 26127H   26169.58334491 -.01908669  00000+0 -12123-1 0  9993
2 69450  53.1591 255.3817 0001034  56.7185  35.6808 15.78938161  2866
STARLINK-37578          
1 69451U 26127J   26169.58334491 -.00046858  00000+0 -23489-3 0  9995
2 69451  53.1590 255.3642 0000842  72.8638  28.1238 15.80897203  2868
STARLINK-37577          
1 69452U 26127K   26169.58334491 -.00066744  00000+0 -33654-3 0  9997
2 69452  53.1591 255.3492 0001109  74.2651  34.0047 15.80916794  2862
STARLINK-37500          
1 69453U 26127L   26169.58334491 -.00054342  00000+0 -27308-3 0  9998
2 69453  53.1590 255.3160 0001217  74.9832  49.4371 15.80906258  2866
STARLINK-37575          
1 69454U 26127M   26169.58334491 -.00048894  00000+0 -24523-3 0  9990
2 69454  53.1592 255.3129 0001278  42.2102  83.5133 15.80903110  2868
STARLINK-37642          
1 69455U 26127N   26169.58334491  .00023786  00000+0  12378-3 0  9997
2 69455  53.1595 255.2626 0001154  85.8076  64.1639 15.80861723  2868
STARLINK-37513          
1 69456U 26127P   26169.58334491  .00062714  00000+0  31940-3 0  9998
2 69456  53.1589 255.2184 0001186  75.3850  95.8706 15.80843617  2868
STARLINK-37563          
1 69457U 26127Q   26169.58334491  .00055364  00000+0  28273-3 0  9997
2 69457  53.1586 255.1878 0001593  66.6597 119.3990 15.80835248  2866
STARLINK-37565          
1 69458U 26127R   26169.58334491 -.00026644  00000+0 -13179-3 0  9998
2 69458  53.1589 255.1963 0000834  63.5546 118.3396 15.80886151  2860
STARLINK-37498          
1 69459U 26127S   26169.58334491 -.01214784  00000+0 -68023-2 0  9991
2 69459  53.1590 255.1934 0001534  63.7796 119.4971 15.81271714  2863
STARLINK-37384          
1 69460U 26127T   26169.58334491  .00007653  00000+0  42287-4 0  9991
2 69460  53.1588 255.1701 0001179  76.8029 117.7685 15.80870069  2863
STARLINK-37707          
1 69461U 26127U   26169.58334491 -.01880643  00000+0 -10115-1 0  9995
2 69461  53.1586 255.1070 0000927  68.1268 156.9709 15.82457804  2862
STARLINK-37525          
1 69462U 26127V   26169.58334491 -.00330601  00000+0 -17200-2 0  9992
2 69462  53.1586 255.1031 0001314  60.2239 166.6526 15.81074068  2863
STARLINK-37526          
1 69463U 26127W   26169.58334491 -.00064543  00000+0 -32551-3 0  9999
2 69463  53.1585 255.0954 0001166  59.6927 170.8384 15.80898915  2860
STARLINK-37574          
1 69464U 26127X   26169.58334491 -.01923791  00000+0 -97929-2 0  9999
2 69464  53.1583 255.0211 0000874  68.4436 197.9973 15.83680757  2863
STARLINK-37535          
1 69465U 26127Y   26169.58334491 -.01041189  00000+0 -57417-2 0  9990
2 69465  53.1587 255.0373 0001162  54.7155 203.8406 15.81624500  2864
STARLINK-37583          
1 69466U 26127Z   26169.58334491 -.02046848  00000+0 -98194-2 0  9996
2 69466  53.1578 254.9243 0000907  72.0595 240.6565 15.85104877  2865
STARLINK-37546          
1 69467U 26127AA  26169.58334491 -.02097963  00000+0 -97954-2 0  9994
2 69467  53.1574 254.9019 0000902  71.8418 251.5745 15.85741798  2869
STARLINK-37532          
1 69468U 26127AB  26169.58334491 -.02133205  00000+0 -10530-1 0  9999
2 69468  53.1578 254.9070 0000821  67.7647 253.1424 15.84666180  2861
STARLINK-37708          
1 69469U 26127AC  26169.58334491 -.02130658  00000+0 -10403-1 0  9998
2 69469  53.1574 254.8925 0000790  73.0637 254.6141 15.84886242  2865
STARLINK-37686          
1 69470U 26127AD  26169.58334491 -.02110978  00000+0 -10045-1 0  9995
2 69470  53.1575 254.8713 0000796  66.6653 271.2064 15.85379065  2865
STARLINK-37451          
1 69471U 26127AE  26169.58334491 -.02197700  00000+0 -10107-1 0  9993
2 69471  53.1571 254.8532 0000877  74.8287 271.7601 15.86214044  2863
DTC TEST OBJECT A       
1 69472U 26128A   26169.64574703  .00022134  00000+0  31979-3 0  9990
2 69472  54.9943 298.2911 0008593 294.7544  65.2597 15.55896398  1459
DTC TEST OBJECT B       
1 69473U 26128B   26169.64366323  .00027608  00000+0  39010-3 0  9993
2 69473  55.0031 298.2859 0008651 295.5817  64.4324 15.56365972  1446
TJS-25                  
1 69474U 26129A   26162.48255804  .00007407  00000+0  19774-2 0  9990
2 69474  16.5302  30.5351 7751889 199.9639  91.9387  1.72502163    78
STARLINK-37816          
1 69478U 26131A   26168.75003472 -.01093379  37146-3 -26551-2 0  9997
2 69478  97.2824 188.9762 0001149  80.4448  35.9636 15.96316495  2106
STARLINK-37878          
1 69479U 26131B   26168.41668981 -.00976144  30334-3 -22776-2 0  9999
2 69479  97.2817 188.6149 0000872  97.2660 265.8231 15.97036350  1316
STARLINK-37817          
1 69480U 26131C   26168.75003472 -.01095329  37360-3 -26268-2 0  9990
2 69480  97.2822 188.9776 0001181  77.8521  42.4103 15.96547425  2101
STARLINK-37727          
1 69481U 26131D   26168.75003472 -.01098784  37629-3 -26175-2 0  9994
2 69481  97.2819 188.9784 0001174  76.6396  45.7078 15.96671350  2108
STARLINK-37814          
1 69482U 26131E   26168.75003472 -.01099082  37691-3 -26031-2 0  9997
2 69482  97.2821 188.9793 0001181  77.2384  46.9070 15.96778578  2109
