OBJECT_NAME,OBJECT_ID,EPOCH,MEAN_MOTION,ECCENTRICITY,INCLINATION,RA_OF_ASC_NODE,ARG_OF_PERICENTER,MEAN_ANOMALY,EPHEMERIS_TYPE,CLASSIFICATION_TYPE,NORAD_CAT_ID,ELEMENT_SET_NO,REV_AT_EPOCH,BSTAR,MEAN_MOTION_DOT,MEAN_MOTION_DDOT
STARLINK-37601,2026-127H,2026-06-18T14:00:01.000224,15.78938161,.00010348,53.1591,255.3817,56.7185,35.6808,0,U,69450,999,286,-.12122936E-1,-.1908669E-1,0
STARLINK-37578,2026-127J,2026-06-18T14:00:01.000224,15.80897203,.00008421,53.1590,255.3642,72.8638,28.1238,0,U,69451,999,286,-.23488989E-3,-.46858E-3,0
STARLINK-37577,2026-127K,2026-06-18T14:00:01.000224,15.80916794,.00011092,53.1591,255.3492,74.2651,34.0047,0,U,69452,999,286,-.33654202E-3,-.66744E-3,0
STARLINK-37500,2026-127L,2026-06-18T14:00:01.000224,15.80906258,.00012173,53.1590,255.3160,74.9832,49.4371,0,U,69453,999,286,-.27308297E-3,-.54342E-3,0
STARLINK-37575,2026-127M,2026-06-18T14:00:01.000224,15.80903110,.0001278,53.1592,255.3129,42.2102,83.5133,0,U,69454,999,286,-.24522547E-3,-.48894E-3,0
STARLINK-37642,2026-127N,2026-06-18T14:00:01.000224,15.80861723,.00011549,53.1595,255.2626,85.8076,64.1639,0,U,69455,999,286,.12378407E-3,.23786E-3,0
STARLINK-37513,2026-127P,2026-06-18T14:00:01.000224,15.80843617,.00011867,53.1589,255.2184,75.3850,95.8706,0,U,69456,999,286,.31940218E-3,.62714E-3,0
STARLINK-37563,2026-127Q,2026-06-18T14:00:01.000224,15.80835248,.00015937,53.1586,255.1878,66.6597,119.3990,0,U,69457,999,286,.28272577E-3,.55364E-3,0
STARLINK-37565,2026-127R,2026-06-18T14:00:01.000224,15.80886151,.00008344,53.1589,255.1963,63.5546,118.3396,0,U,69458,999,286,-.13179134E-3,-.26644E-3,0
STARLINK-37498,2026-127S,2026-06-18T14:00:01.000224,15.81271714,.00015345,53.1590,255.1934,63.7796,119.4971,0,U,69459,999,286,-.68023099E-2,-.1214784E-1,0
STARLINK-37384,2026-127T,2026-06-18T14:00:01.000224,15.80870069,.00011796,53.1588,255.1701,76.8029,117.7685,0,U,69460,999,286,.42286724E-4,.7653E-4,0
STARLINK-37707,2026-127U,2026-06-18T14:00:01.000224,15.82457804,.00009272,53.1586,255.1070,68.1268,156.9709,0,U,69461,999,286,-.10114762E-1,-.1880643E-1,0
STARLINK-37525,2026-127V,2026-06-18T14:00:01.000224,15.81074068,.00013147,53.1586,255.1031,60.2239,166.6526,0,U,69462,999,286,-.17200383E-2,-.330601E-2,0
STARLINK-37526,2026-127W,2026-06-18T14:00:01.000224,15.80898915,.00011662,53.1585,255.0954,59.6927,170.8384,0,U,69463,999,286,-.32550692E-3,-.64543E-3,0
STARLINK-37574,2026-127X,2026-06-18T14:00:01.000224,15.83680757,.00008746,53.1583,255.0211,68.4436,197.9973,0,U,69464,999,286,-.97928922E-2,-.1923791E-1,0
STARLINK-37535,2026-127Y,2026-06-18T14:00:01.000224,15.81624500,.00011628,53.1587,255.0373,54.7155,203.8406,0,U,69465,999,286,-.57417319E-2,-.1041189E-1,0
STARLINK-37583,2026-127Z,2026-06-18T14:00:01.000224,15.85104877,.00009073,53.1578,254.9243,72.0595,240.6565,0,U,69466,999,286,-.98194109E-2,-.2046848E-1,0
STARLINK-37546,2026-127AA,2026-06-18T14:00:01.000224,15.85741798,.00009022,53.1574,254.9019,71.8418,251.5745,0,U,69467,999,286,-.97954064E-2,-.2097963E-1,0
STARLINK-37532,2026-127AB,2026-06-18T14:00:01.000224,15.84666180,.00008218,53.1578,254.9070,67.7647,253.1424,0,U,69468,999,286,-.10529587E-1,-.2133205E-1,0
STARLINK-37708,2026-127AC,2026-06-18T14:00:01.000224,15.84886242,.00007905,53.1574,254.8925,73.0637,254.6141,0,U,69469,999,286,-.10402796E-1,-.2130658E-1,0
STARLINK-37686,2026-127AD,2026-06-18T14:00:01.000224,15.85379065,.00007961,53.1575,254.8713,66.6653,271.2064,0,U,69470,999,286,-.10044818E-1,-.2110978E-1,0
STARLINK-37451,2026-127AE,2026-06-18T14:00:01.000224,15.86214044,.00008776,53.1571,254.8532,74.8287,271.7601,0,U,69471,999,286,-.10107459E-1,-.21977E-1,0
DTC TEST OBJECT A,2026-128A,2026-06-18T15:29:52.543392,15.55896398,.00085936,54.9943,298.2911,294.7544,65.2597,0,U,69472,999,145,.31979252E-3,.22134E-3,0
DTC TEST OBJECT B,2026-128B,2026-06-18T15:26:52.503072,15.56365972,.00086518,55.0031,298.2859,295.5817,64.4324,0,U,69473,999,144,.39009902E-3,.27608E-3,0
TJS-25,2026-129A,2026-06-11T11:34:53.014656,1.72502163,.7751889,16.5302,30.5351,199.9639,91.9387,0,U,69474,999,7,.19774E-2,.7407E-4,0
STARLINK-37816,2026-131A,2026-06-17T18:00:02.999808,15.96316495,.00011495,97.2824,188.9762,80.4448,35.9636,0,U,69478,999,210,-.2655077E-2,-.1093379E-1,.37145704E-3
STARLINK-37878,2026-131B,2026-06-17T10:00:01.999584,15.97036350,.00008726,97.2817,188.6149,97.2660,265.8231,0,U,69479,999,131,-.22776066E-2,-.976144E-2,.30334162E-3
STARLINK-37817,2026-131C,2026-06-17T18:00:02.999808,15.96547425,.00011812,97.2822,188.9776,77.8521,42.4103,0,U,69480,999,210,-.26268227E-2,-.1095329E-1,.37360476E-3
STARLINK-37727,2026-131D,2026-06-17T18:00:02.999808,15.96671350,.00011745,97.2819,188.9784,76.6396,45.7078,0,U,69481,999,210,-.26175375E-2,-.1098784E-1,.37628858E-3
STARLINK-37814,2026-131E,2026-06-17T18:00:02.999808,15.96778578,.00011811,97.2821,188.9793,77.2384,46.9070,0,U,69482,999,210,-.26030553E-2,-.1099082E-1,.37691003E-3
